CCSDS_OMM_VERS = 2.0
CREATION_DATE  = 
ORIGINATOR     = 

OBJECT_NAME    = STARLINK-36744
OBJECT_ID      = 2026-039B
CENTER_NAME    = EARTH
REF_FRAME      = TEME
TIME_SYSTEM    = UTC
MEAN_ELEMENT_THEORY = SGP/SGP4

EPOCH          = 2026-03-23T04:00:01.999584
MEAN_MOTION    = 15.48875193
ECCENTRICITY   = .00020644
INCLINATION    = 42.9994
RA_OF_ASC_NODE = 333.6270
ARG_OF_PERICENTER = 278.2823
MEAN_ANOMALY   = 139.7762

EPHEMERIS_TYPE = 0
CLASSIFICATION_TYPE = U
NORAD_CAT_ID   = 67987
ELEMENT_SET_NO = 999
REV_AT_EPOCH   = 504
BSTAR          = -.37539831E-1
MEAN_MOTION_DOT = -.1866314E-1
MEAN_MOTION_DDOT = 0

CCSDS_OMM_VERS = 2.0
CREATION_DATE  = 
ORIGINATOR     = 

OBJECT_NAME    = STARLINK-36734
OBJECT_ID      = 2026-039C
CENTER_NAME    = EARTH
REF_FRAME      = TEME
TIME_SYSTEM    = UTC
MEAN_ELEMENT_THEORY = SGP/SGP4

EPOCH          = 2026-03-22T09:42:00.541152
MEAN_MOTION    = 15.50576115
ECCENTRICITY   = .00020558
INCLINATION    = 42.9978
RA_OF_ASC_NODE = 339.2604
ARG_OF_PERICENTER = 291.5146
MEAN_ANOMALY   = 68.5495

EPHEMERIS_TYPE = 0
CLASSIFICATION_TYPE = U
NORAD_CAT_ID   = 67988
ELEMENT_SET_NO = 999
REV_AT_EPOCH   = 362
BSTAR          = .21734428E-2
MEAN_MOTION_DOT = .12928E-2
MEAN_MOTION_DDOT = 0

CCSDS_OMM_VERS = 2.0
CREATION_DATE  = 
ORIGINATOR     = 

OBJECT_NAME    = STARLINK-36957
OBJECT_ID      = 2026-039D
CENTER_NAME    = EARTH
REF_FRAME      = TEME
TIME_SYSTEM    = UTC
MEAN_ELEMENT_THEORY = SGP/SGP4

EPOCH          = 2026-03-23T04:00:01.999584
MEAN_MOTION    = 15.50886261
ECCENTRICITY   = .00015908
INCLINATION    = 42.9999
RA_OF_ASC_NODE = 333.6780
ARG_OF_PERICENTER = 273.6685
MEAN_ANOMALY   = 123.2665

EPHEMERIS_TYPE = 0
CLASSIFICATION_TYPE = U
NORAD_CAT_ID   = 67989
ELEMENT_SET_NO = 999
REV_AT_EPOCH   = 504
BSTAR          = -.19589979E-1
MEAN_MOTION_DOT = -.1055346E-1
MEAN_MOTION_DDOT = 0

CCSDS_OMM_VERS = 2.0
CREATION_DATE  = 
ORIGINATOR     = 

OBJECT_NAME    = STARLINK-36951
OBJECT_ID      = 2026-039E
CENTER_NAME    = EARTH
REF_FRAME      = TEME
TIME_SYSTEM    = UTC
MEAN_ELEMENT_THEORY = SGP/SGP4

EPOCH          = 2026-03-23T04:00:01.999584
MEAN_MOTION    = 15.50610425
ECCENTRICITY   = .0001353
INCLINATION    = 43.0000
RA_OF_ASC_NODE = 333.9350
ARG_OF_PERICENTER = 270.2571
MEAN_ANOMALY   = 22.5584

EPHEMERIS_TYPE = 0
CLASSIFICATION_TYPE = U
NORAD_CAT_ID   = 67990
ELEMENT_SET_NO = 999
REV_AT_EPOCH   = 504
BSTAR          = -.15048031E-2
MEAN_MOTION_DOT = -.87736E-3
MEAN_MOTION_DDOT = 0

CCSDS_OMM_VERS = 2.0
CREATION_DATE  = 
ORIGINATOR     = 

OBJECT_NAME    = STARLINK-36941
OBJECT_ID      = 2026-039F
CENTER_NAME    = EARTH
REF_FRAME      = TEME
TIME_SYSTEM    = UTC
MEAN_ELEMENT_THEORY = SGP/SGP4

EPOCH          = 2026-03-22T23:35:56.932512
MEAN_MOTION    = 15.50620076
ECCENTRICITY   = .00017525
INCLINATION    = 42.9998
RA_OF_ASC_NODE = 335.8638
ARG_OF_PERICENTER = 269.8781
MEAN_ANOMALY   = 90.1878

EPHEMERIS_TYPE = 0
CLASSIFICATION_TYPE = U
NORAD_CAT_ID   = 67991
ELEMENT_SET_NO = 999
REV_AT_EPOCH   = 371
BSTAR          = .14871922E-2
MEAN_MOTION_DOT = .88021E-3
MEAN_MOTION_DDOT = 0

CCSDS_OMM_VERS = 2.0
CREATION_DATE  = 
ORIGINATOR     = 

OBJECT_NAME    = STARLINK-36950
OBJECT_ID      = 2026-039G
CENTER_NAME    = EARTH
REF_FRAME      = TEME
TIME_SYSTEM    = UTC
MEAN_ELEMENT_THEORY = SGP/SGP4

EPOCH          = 2026-03-23T00:00:02.000160
MEAN_MOTION    = 15.50609119
ECCENTRICITY   = .00014286
INCLINATION    = 42.9997
RA_OF_ASC_NODE = 335.3914
ARG_OF_PERICENTER = 271.8352
MEAN_ANOMALY   = 334.5233

EPHEMERIS_TYPE = 0
CLASSIFICATION_TYPE = U
NORAD_CAT_ID   = 67992
ELEMENT_SET_NO = 999
REV_AT_EPOCH   = 501
BSTAR          = -.19510871E-2
MEAN_MOTION_DOT = -.113283E-2
MEAN_MOTION_DDOT = 0

CCSDS_OMM_VERS = 2.0
CREATION_DATE  = 
ORIGINATOR     = 

OBJECT_NAME    = STARLINK-36975
OBJECT_ID      = 2026-039H
CENTER_NAME    = EARTH
REF_FRAME      = TEME
TIME_SYSTEM    = UTC
MEAN_ELEMENT_THEORY = SGP/SGP4

EPOCH          = 2026-03-23T00:00:02.000160
MEAN_MOTION    = 15.50634186
ECCENTRICITY   = .00014744
INCLINATION    = 42.9997
RA_OF_ASC_NODE = 335.2941
ARG_OF_PERICENTER = 272.1708
MEAN_ANOMALY   = 13.3498

EPHEMERIS_TYPE = 0
CLASSIFICATION_TYPE = U
NORAD_CAT_ID   = 67993
ELEMENT_SET_NO = 999
REV_AT_EPOCH   = 501
BSTAR          = -.14324726E-2
MEAN_MOTION_DOT = -.8365E-3
MEAN_MOTION_DDOT = 0

CCSDS_OMM_VERS = 2.0
CREATION_DATE  = 
ORIGINATOR     = 

OBJECT_NAME    = STARLINK-36993
OBJECT_ID      = 2026-039J
CENTER_NAME    = EARTH
REF_FRAME      = TEME
TIME_SYSTEM    = UTC
MEAN_ELEMENT_THEORY = SGP/SGP4

EPOCH          = 2026-03-23T04:00:01.999584
MEAN_MOTION    = 15.50565581
ECCENTRICITY   = .00017029
INCLINATION    = 42.9998
RA_OF_ASC_NODE = 333.6099
ARG_OF_PERICENTER = 270.4884
MEAN_ANOMALY   = 153.3372

EPHEMERIS_TYPE = 0
CLASSIFICATION_TYPE = U
NORAD_CAT_ID   = 67994
ELEMENT_SET_NO = 999
REV_AT_EPOCH   = 504
BSTAR          = -.43973295E-3
MEAN_MOTION_DOT = -.26041E-3
MEAN_MOTION_DDOT = 0

CCSDS_OMM_VERS = 2.0
CREATION_DATE  = 
ORIGINATOR     = 

OBJECT_NAME    = STARLINK-36968
OBJECT_ID      = 2026-039K
CENTER_NAME    = EARTH
REF_FRAME      = TEME
TIME_SYSTEM    = UTC
MEAN_ELEMENT_THEORY = SGP/SGP4

EPOCH          = 2026-03-22T00:00:02.000160
MEAN_MOTION    = 15.50485382
ECCENTRICITY   = .00013927
INCLINATION    = 42.9997
RA_OF_ASC_NODE = 341.3417
ARG_OF_PERICENTER = 263.3408
MEAN_ANOMALY   = 112.4555

EPHEMERIS_TYPE = 0
CLASSIFICATION_TYPE = U
NORAD_CAT_ID   = 67995
ELEMENT_SET_NO = 999
REV_AT_EPOCH   = 485
BSTAR          = .11933122E-2
MEAN_MOTION_DOT = .70059E-3
MEAN_MOTION_DDOT = 0

CCSDS_OMM_VERS = 2.0
CREATION_DATE  = 
ORIGINATOR     = 

OBJECT_NAME    = STARLINK-36979
OBJECT_ID      = 2026-039L
CENTER_NAME    = EARTH
REF_FRAME      = TEME
TIME_SYSTEM    = UTC
MEAN_ELEMENT_THEORY = SGP/SGP4

EPOCH          = 2026-03-23T04:00:01.999584
MEAN_MOTION    = 15.50562166
ECCENTRICITY   = .00016337
INCLINATION    = 43.0000
RA_OF_ASC_NODE = 333.4922
ARG_OF_PERICENTER = 263.0407
MEAN_ANOMALY   = 207.9274

EPHEMERIS_TYPE = 0
CLASSIFICATION_TYPE = U
NORAD_CAT_ID   = 67996
ELEMENT_SET_NO = 999
REV_AT_EPOCH   = 504
BSTAR          = -.12339919E-3
MEAN_MOTION_DOT = -.757E-4
MEAN_MOTION_DDOT = 0

CCSDS_OMM_VERS = 2.0
CREATION_DATE  = 
ORIGINATOR     = 

OBJECT_NAME    = STARLINK-36994
OBJECT_ID      = 2026-039M
CENTER_NAME    = EARTH
REF_FRAME      = TEME
TIME_SYSTEM    = UTC
MEAN_ELEMENT_THEORY = SGP/SGP4

EPOCH          = 2026-03-23T04:00:01.999584
MEAN_MOTION    = 15.50575636
ECCENTRICITY   = .00017578
INCLINATION    = 43.0000
RA_OF_ASC_NODE = 333.8560
ARG_OF_PERICENTER = 261.2942
MEAN_ANOMALY   = 62.3364

EPHEMERIS_TYPE = 0
CLASSIFICATION_TYPE = U
NORAD_CAT_ID   = 67997
ELEMENT_SET_NO = 999
REV_AT_EPOCH   = 504
BSTAR          = -.73214575E-3
MEAN_MOTION_DOT = -.43053E-3
MEAN_MOTION_DDOT = 0

CCSDS_OMM_VERS = 2.0
CREATION_DATE  = 
ORIGINATOR     = 

OBJECT_NAME    = STARLINK-36988
OBJECT_ID      = 2026-039N
CENTER_NAME    = EARTH
REF_FRAME      = TEME
TIME_SYSTEM    = UTC
MEAN_ELEMENT_THEORY = SGP/SGP4

EPOCH          = 2026-03-23T04:00:01.999584
MEAN_MOTION    = 15.50565126
ECCENTRICITY   = .00015113
INCLINATION    = 43.0000
RA_OF_ASC_NODE = 333.7978
ARG_OF_PERICENTER = 276.0798
MEAN_ANOMALY   = 71.2969

EPHEMERIS_TYPE = 0
CLASSIFICATION_TYPE = U
NORAD_CAT_ID   = 67998
ELEMENT_SET_NO = 999
REV_AT_EPOCH   = 504
BSTAR          = -.39766497E-3
MEAN_MOTION_DOT = -.23589E-3
MEAN_MOTION_DDOT = 0

