STARLINK-36744          
1 67987U 26039B   26082.16668981 -.01866314  00000+0 -37540-1 0  9990
2 67987  42.9994 333.6270 0002064 278.2823 139.7762 15.48875193  5049
STARLINK-36734          
1 67988U 26039C   26081.40417293  .00129280  00000+0  21734-2 0  9995
2 67988  42.9978 339.2604 0002055 291.5146  68.5495 15.50576115  3620
STARLINK-36957          
1 67989U 26039D   26082.16668981 -.01055346  00000+0 -19590-1 0  9992
2 67989  42.9999 333.6780 0001590 273.6685 123.2665 15.50886261  5041
STARLINK-36951          
1 67990U 26039E   26082.16668981 -.00087736  00000+0 -15048-2 0  9996
2 67990  43.0000 333.9350 0001353 270.2571  22.5584 15.50610425  5046
STARLINK-36941          
1 67991U 26039F   26081.98329783  .00088021  00000+0  14872-2 0  9990
2 67991  42.9998 335.8638 0001752 269.8781  90.1878 15.50620076  3713
STARLINK-36950          
1 67992U 26039G   26082.00002315 -.00113283  00000+0 -19511-2 0  9990
2 67992  42.9997 335.3914 0001428 271.8352 334.5233 15.50609119  5012
STARLINK-36975          
1 67993U 26039H   26082.00002315 -.00083650  00000+0 -14325-2 0  9993
2 67993  42.9997 335.2941 0001474 272.1708  13.3498 15.50634186  5019
STARLINK-36993          
1 67994U 26039J   26082.16668981 -.00026041  00000+0 -43973-3 0  9991
2 67994  42.9998 333.6099 0001702 270.4884 153.3372 15.50565581  5048
STARLINK-36968          
1 67995U 26039K   26081.00002315  .00070059  00000+0  11933-2 0  9993
2 67995  42.9997 341.3417 0001392 263.3408 112.4555 15.50485382  4853
STARLINK-36979          
1 67996U 26039L   26082.16668981 -.00007570  00000+0 -12340-3 0  9993
2 67996  43.0000 333.4922 0001633 263.0407 207.9274 15.50562166  5044
STARLINK-36994          
1 67997U 26039M   26082.16668981 -.00043053  00000+0 -73215-3 0  9998
2 67997  43.0000 333.8560 0001757 261.2942  62.3364 15.50575636  5047
STARLINK-36988          
1 67998U 26039N   26082.16668981 -.00023589  00000+0 -39766-3 0  9994
2 67998  43.0000 333.7978 0001511 276.0798  71.2969 15.50565126  5044
